{
  "type": "FeatureCollection",
  "features": [
    {
      "type": "Feature",
      "properties": {
        "norad_id": 34299,
        "name": "COSMOS 2251 DEB",
        "group": "cosmos-2251-debris",
        "lat": 48.94086693923075,
        "lon": 136.59712638817965,
        "alt_km": 343.1489803483382,
        "timestamp": "2025-12-12T03:50:52.812273+00:00",
        "meta_object_name": "COSMOS 2251 DEB",
        "meta_object_id": "1993-036MV",
        "meta_epoch": "2025-12-11T08:58:13.866240",
        "meta_mean_motion": 15.70467105,
        "meta_eccentricity": 0.00204715,
        "meta_inclination": 73.9778,
        "meta_ra_of_asc_node": 337.6469,
        "meta_arg_of_pericenter": 58.4912,
        "meta_mean_anomaly": 301.8308,
        "meta_ephemeris_type": 0,
        "meta_classification_type": "U",
        "meta_norad_cat_id": 34299,
        "meta_element_set_no": 999,
        "meta_rev_at_epoch": 88989,
        "meta_bstar": 0.0096666089,
        "meta_mean_motion_dot": 0.01340288,
        "meta_mean_motion_ddot": 0,
        "tle_line1": "1 34299U 93036MV  25345.37377160  .01340288  00000+0  96666-2 0  9991",
        "tle_line2": "2 34299  73.9778 337.6469 0020471  58.4912 301.8308 15.70467105889892"
      },
      "geometry": {
        "type": "Point",
        "coordinates": [
          136.59712638817965,
          48.94086693923075
        ]
      }
    },
    {
      "type": "Feature",
      "properties": {
        "norad_id": 34301,
        "name": "COSMOS 2251 DEB",
        "group": "cosmos-2251-debris",
        "lat": 5.763523675181277,
        "lon": 169.51379560558442,
        "alt_km": 623.1367649123176,
        "timestamp": "2025-12-12T03:50:52.812283+00:00",
        "meta_object_name": "COSMOS 2251 DEB",
        "meta_object_id": "1993-036MX",
        "meta_epoch": "2025-12-10T21:23:31.255008",
        "meta_mean_motion": 14.84387447,
        "meta_eccentricity": 0.0011526,
        "meta_inclination": 74.0055,
        "meta_ra_of_asc_node": 170.3754,
        "meta_arg_of_pericenter": 230.3248,
        "meta_mean_anomaly": 197.0552,
        "meta_ephemeris_type": 0,
        "meta_classification_type": "U",
        "meta_norad_cat_id": 34301,
        "meta_element_set_no": 999,
        "meta_rev_at_epoch": 88373,
        "meta_bstar": 0.0044269,
        "meta_mean_motion_dot": 0.00037424,
        "meta_mean_motion_ddot": 0,
        "tle_line1": "1 34301U 93036MX  25344.89133397  .00037424  00000+0  44269-2 0  9999",
        "tle_line2": "2 34301  74.0055 170.3754 0011526 230.3248 197.0552 14.84387447883736"
      },
      "geometry": {
        "type": "Point",
        "coordinates": [
          169.51379560558442,
          5.763523675181277
        ]
      }
    },
    {
      "type": "Feature",
      "properties": {
        "norad_id": 34302,
        "name": "COSMOS 2251 DEB",
        "group": "cosmos-2251-debris",
        "lat": -8.417554292702166,
        "lon": -52.95412686419609,
        "alt_km": 813.5945828151926,
        "timestamp": "2025-12-12T03:50:52.812293+00:00",
        "meta_object_name": "COSMOS 2251 DEB",
        "meta_object_id": "1993-036MY",
        "meta_epoch": "2025-12-11T12:17:02.925024",
        "meta_mean_motion": 14.39325279,
        "meta_eccentricity": 0.00786919,
        "meta_inclination": 74.178,
        "meta_ra_of_asc_node": 125.8271,
        "meta_arg_of_pericenter": 341.4101,
        "meta_mean_anomaly": 88.8066,
        "meta_ephemeris_type": 0,
        "meta_classification_type": "U",
        "meta_norad_cat_id": 34302,
        "meta_element_set_no": 999,
        "meta_rev_at_epoch": 87703,
        "meta_bstar": 0.0010855636,
        "meta_mean_motion_dot": 3.472e-05,
        "meta_mean_motion_ddot": 0,
        "tle_line1": "1 34302U 93036MY  25345.51183941  .00003472  00000+0  10856-2 0  9991",
        "tle_line2": "2 34302  74.1780 125.8271 0078691 341.4101  88.8066 14.39325279877038"
      },
      "geometry": {
        "type": "Point",
        "coordinates": [
          -52.95412686419609,
          -8.417554292702166
        ]
      }
    },
    {
      "type": "Feature",
      "properties": {
        "norad_id": 34303,
        "name": "COSMOS 2251 DEB",
        "group": "cosmos-2251-debris",
        "lat": -21.030961521618206,
        "lon": -77.19115496443848,
        "alt_km": 713.9026950703792,
        "timestamp": "2025-12-12T03:50:52.812303+00:00",
        "meta_object_name": "COSMOS 2251 DEB",
        "meta_object_id": "1993-036MZ",
        "meta_epoch": "2025-12-11T07:12:46.342368",
        "meta_mean_motion": 14.54421206,
        "meta_eccentricity": 0.01349931,
        "meta_inclination": 74.0055,
        "meta_ra_of_asc_node": 290.7694,
        "meta_arg_of_pericenter": 69.4898,
        "meta_mean_anomaly": 90.2247,
        "meta_ephemeris_type": 0,
        "meta_classification_type": "U",
        "meta_norad_cat_id": 34303,
        "meta_element_set_no": 999,
        "meta_rev_at_epoch": 87941,
        "meta_bstar": 0.0026605778,
        "meta_mean_motion_dot": 0.00012776,
        "meta_mean_motion_ddot": 0,
        "tle_line1": "1 34303U 93036MZ  25345.30053637  .00012776  00000+0  26606-2 0  9994",
        "tle_line2": "2 34303  74.0055 290.7694 0134993  69.4898  90.2247 14.54421206879418"
      },
      "geometry": {
        "type": "Point",
        "coordinates": [
          -77.19115496443848,
          -21.030961521618206
        ]
      }
    },
    {
      "type": "Feature",
      "properties": {
        "norad_id": 34304,
        "name": "COSMOS 2251 DEB",
        "group": "cosmos-2251-debris",
        "lat": 52.11167773806924,
        "lon": -77.9532159800992,
        "alt_km": 826.9827452850914,
        "timestamp": "2025-12-12T03:50:52.812313+00:00",
        "meta_object_name": "COSMOS 2251 DEB",
        "meta_object_id": "1993-036NA",
        "meta_epoch": "2025-12-11T15:38:34.924704",
        "meta_mean_motion": 14.37842922,
        "meta_eccentricity": 0.01289323,
        "meta_inclination": 74.0134,
        "meta_ra_of_asc_node": 124.6019,
        "meta_arg_of_pericenter": 262.6101,
        "meta_mean_anomaly": 111.8909,
        "meta_ephemeris_type": 0,
        "meta_classification_type": "U",
        "meta_norad_cat_id": 34304,
        "meta_element_set_no": 999,
        "meta_rev_at_epoch": 87281,
        "meta_bstar": 0.0023363663,
        "meta_mean_motion_dot": 7.735e-05,
        "meta_mean_motion_ddot": 0,
        "tle_line1": "1 34304U 93036NA  25345.65179311  .00007735  00000+0  23364-2 0  9998",
        "tle_line2": "2 34304  74.0134 124.6019 0128932 262.6101 111.8909 14.37842922872818"
      },
      "geometry": {
        "type": "Point",
        "coordinates": [
          -77.9532159800992,
          52.11167773806924
        ]
      }
    },
    {
      "type": "Feature",
      "properties": {
        "norad_id": 34307,
        "name": "COSMOS 2251 DEB",
        "group": "cosmos-2251-debris",
        "lat": 33.46782095415753,
        "lon": 123.15025481019637,
        "alt_km": 762.3434896834351,
        "timestamp": "2025-12-12T03:50:52.812323+00:00",
        "meta_object_name": "COSMOS 2251 DEB",
        "meta_object_id": "1993-036ND",
        "meta_epoch": "2025-12-11T08:14:02.633856",
        "meta_mean_motion": 13.5431794,
        "meta_eccentricity": 0.03921019,
        "meta_inclination": 74.0532,
        "meta_ra_of_asc_node": 315.3562,
        "meta_arg_of_pericenter": 146.6068,
        "meta_mean_anomaly": 335.282,
        "meta_ephemeris_type": 0,
        "meta_classification_type": "U",
        "meta_norad_cat_id": 34307,
        "meta_element_set_no": 999,
        "meta_rev_at_epoch": 82843,
        "meta_bstar": 0.00088286025,
        "meta_mean_motion_dot": 9.63e-06,
        "meta_mean_motion_ddot": 0,
        "tle_line1": "1 34307U 93036ND  25345.34308604  .00000963  00000+0  88286-3 0  9997",
        "tle_line2": "2 34307  74.0532 315.3562 0392101 146.6068 335.2820 13.54317940828437"
      },
      "geometry": {
        "type": "Point",
        "coordinates": [
          123.15025481019637,
          33.46782095415753
        ]
      }
    },
    {
      "type": "Feature",
      "properties": {
        "norad_id": 34313,
        "name": "COSMOS 2251 DEB",
        "group": "cosmos-2251-debris",
        "lat": -48.37658380184802,
        "lon": -72.16237023166106,
        "alt_km": 520.7625553712678,
        "timestamp": "2025-12-12T03:50:52.812333+00:00",
        "meta_object_name": "COSMOS 2251 DEB",
        "meta_object_id": "1993-036NK",
        "meta_epoch": "2025-12-11T07:31:19.280640",
        "meta_mean_motion": 15.18725133,
        "meta_eccentricity": 0.00115871,
        "meta_inclination": 73.9731,
        "meta_ra_of_asc_node": 308.4905,
        "meta_arg_of_pericenter": 83.7799,
        "meta_mean_anomaly": 276.4717,
        "meta_ephemeris_type": 0,
        "meta_classification_type": "U",
        "meta_norad_cat_id": 34313,
        "meta_element_set_no": 999,
        "meta_rev_at_epoch": 89043,
        "meta_bstar": 0.0079441933,
        "meta_mean_motion_dot": 0.00169101,
        "meta_mean_motion_ddot": 0,
        "tle_line1": "1 34313U 93036NK  25345.31341760  .00169101  00000+0  79442-2 0  9994",
        "tle_line2": "2 34313  73.9731 308.4905 0011587  83.7799 276.4717 15.18725133890434"
      },
      "geometry": {
        "type": "Point",
        "coordinates": [
          -72.16237023166106,
          -48.37658380184802
        ]
      }
    }
  ]
}